ONEWEB-0349             
1 49281U 21090C   24116.88739174  .00000118  00000+0  25901-3 0  9996
2 49281  87.9192  70.1022 0002259  80.9756 279.1632 13.20773094126563
ONEWEB-0353             
1 49282U 21090D   24116.94823053 -.00001855  00000+0 -50390-2 0  9994
2 49282  87.8927  85.3579 0001762  81.5685 278.5644 13.14509994126105
ONEWEB-0356             
1 49283U 21090E   24116.88579808 -.00000306  00000+0 -78425-3 0  9994
2 49283  87.9191  70.0977 0001983  53.8923 306.2393 13.20769579126569
ONEWEB-0358             
1 49284U 21090F   24116.91578300 -.00000365  00000+0 -93041-3 0  9991
2 49284  87.9193  70.0775 0002187  75.2756 284.8619 13.20771515128586
ONEWEB-0359             
1 49285U 21090G   24116.91263806  .00000102  00000+0  21832-3 0  9990
2 49285  87.9190  70.0976 0002488  85.2720 274.8697 13.20770283127274
ONEWEB-0360             
1 49286U 21090H   24116.90318638  .00000069  00000+0  13745-3 0  9990
2 49286  87.9191  70.1038 0002101  83.4895 276.6477 13.20772382126582
ONEWEB-0361             
1 49287U 21090J   24116.88424683  .00000112  00000+0  24300-3 0  9994
2 49287  87.9193  70.1024 0001923  80.4637 279.6713 13.20773107127866
ONEWEB-0362             
1 49288U 21090K   24116.89956068  .00000050  00000+0  92298-4 0  9996
2 49288  87.9110 100.6812 0002135  98.3136 261.8239 13.19725482123737
